{
  "norad_id": 23439,
  "name": "RADIO ROSTO (RS15)",
  "history": [
    {
      "epoch": "2026-05-02T10:35:11.463360Z",
      "apogee_km": 2152.234981865279,
      "perigee_km": 1892.3938980153334,
      "latitude_deg": -3.5994954398568274e-05,
      "longitude_deg": -1.9559820673751103,
      "height_km": 1896.864544577468,
      "semi_major_axis_km": 8400.451439940307,
      "eccentricity": 0.0154659,
      "inclination_deg": 64.8209,
      "raan_deg": 17.2009,
      "arg_perigee_deg": 12.2152,
      "mean_anomaly_deg": 348.2456,
      "mean_motion_rev_day": 11.27583789
    },
    {
      "epoch": "2026-05-03T20:38:35.245824Z",
      "apogee_km": 2152.268518105907,
      "perigee_km": 1892.3602326421105,
      "latitude_deg": -4.230955553435027e-06,
      "longitude_deg": -156.49831975611966,
      "height_km": 1896.7150361404865,
      "semi_major_axis_km": 8400.451375374008,
      "eccentricity": 0.0154699,
      "inclination_deg": 64.8209,
      "raan_deg": 14.9063,
      "arg_perigee_deg": 11.9604,
      "mean_anomaly_deg": 348.4929,
      "mean_motion_rev_day": 11.27583802
    },
    {
      "epoch": "2026-05-04T17:55:42.593664Z",
      "apogee_km": 2152.2887548414647,
      "perigee_km": 1892.3401449057064,
      "latitude_deg": -4.9701677452589195e-05,
      "longitude_deg": -118.08751938859113,
      "height_km": 1896.6232132288214,
      "semi_major_axis_km": 8400.451449873584,
      "eccentricity": 0.0154723,
      "inclination_deg": 64.8201,
      "raan_deg": 13.4719,
      "arg_perigee_deg": 11.8,
      "mean_anomaly_deg": 348.6485,
      "mean_motion_rev_day": 11.27583787
    },
    {
      "epoch": "2026-05-05T19:28:15.443904Z",
      "apogee_km": 2152.3214106885544,
      "perigee_km": 1892.3072804598041,
      "latitude_deg": -3.858984049531814e-05,
      "longitude_deg": -143.994185712917,
      "height_km": 1896.5067987262044,
      "semi_major_axis_km": 8400.45134557418,
      "eccentricity": 0.0154762,
      "inclination_deg": 64.8208,
      "raan_deg": 11.7511,
      "arg_perigee_deg": 11.6099,
      "mean_anomaly_deg": 348.833,
      "mean_motion_rev_day": 11.27583808
    },
    {
      "epoch": "2026-05-06T21:00:48.270816Z",
      "apogee_km": 2152.349011133533,
      "perigee_km": 1892.2794416161933,
      "latitude_deg": 2.8247278143628564e-05,
      "longitude_deg": -169.90092853232417,
      "height_km": 1896.395988165912,
      "semi_major_axis_km": 8400.451226374862,
      "eccentricity": 0.0154795,
      "inclination_deg": 64.8207,
      "raan_deg": 10.0301,
      "arg_perigee_deg": 11.4185,
      "mean_anomaly_deg": 349.0188,
      "mean_motion_rev_day": 11.27583832
    },
    {
      "epoch": "2026-05-07T18:17:55.629888Z",
      "apogee_km": 2152.3709279597033,
      "perigee_km": 1892.257673789166,
      "latitude_deg": -3.928090244686746e-05,
      "longitude_deg": -131.48998543317936,
      "height_km": 1896.3062431606306,
      "semi_major_axis_km": 8400.451300874434,
      "eccentricity": 0.0154821,
      "inclination_deg": 64.8206,
      "raan_deg": 8.5959,
      "arg_perigee_deg": 11.2592,
      "mean_anomaly_deg": 349.1733,
      "mean_motion_rev_day": 11.27583817
    },
    {
      "epoch": "2026-05-08T19:50:28.474944Z",
      "apogee_km": 2152.3932482699047,
      "perigee_km": 1892.23629714029,
      "latitude_deg": 1.054169600978548e-06,
      "longitude_deg": -157.3972155439882,
      "height_km": 1896.2036050569623,
      "semi_major_axis_km": 8400.451772705097,
      "eccentricity": 0.0154847,
      "inclination_deg": 64.8198,
      "raan_deg": 6.8745,
      "arg_perigee_deg": 11.0663,
      "mean_anomaly_deg": 349.3605,
      "mean_motion_rev_day": 11.27583722
    }
  ]
}